IRIDIUM 26              
1 24903U 97043A   25219.63951968  .00000282  00000+0  88119-4 0  9999
2 24903  86.3920  89.0030 0001946  85.7666 274.3754 14.37176691464603
IRIDIUM 22              
1 24907U 97043E   25220.09970742  .00000288  00000+0  92431-4 0  9994
2 24907  86.3928  92.3958 0002081  89.1237 271.0199 14.35985978464212
DUMMY MASS 1            
1 24925U 97048A   25220.09892776  .00000349  00000+0  35847-4 0  9995
2 24925  86.3343 111.3322 0005529 343.2525  16.8517 14.87022033513084
DUMMY MASS 2            
1 24926U 97048B   25219.73320642  .00000341  00000+0  35109-4 0  9996
2 24926  86.3348 113.1188 0006823 354.8222   5.2930 14.86773749512806
IRIDIUM 29              
1 24944U 97051A   25219.75582488  .00000351  00000+0  11292-3 0  9997
2 24944  86.3974 122.2769 0002383  87.3345 272.8124 14.36502999460898
IRIDIUM 33              
1 24946U 97051C   25219.65484258  .00000256  00000+0  83276-4 0  9990
2 24946  86.3888 121.5838 0005683 272.4902  87.5644 14.34919538460128
IRIDIUM 28              
1 24948U 97051E   25219.76638671  .00000279  00000+0  86788-4 0  9990
2 24948  86.3974 119.7586 0001680  82.1527 277.9861 14.37415801461255
IRIDIUM 36              
1 24967U 97056C   25219.51284898  .00000286  00000+0  88691-4 0  9990
2 24967  86.4020 151.4564 0002076  91.1625 268.9810 14.37642798459592
